0 COSMOS 2251 DEB
1 34816U 93036ABF 13284.10306241  .00000447  00000-0  44224-3 0  6652
2 34816 073.8878 151.1901 0391462 289.0777 230.3814 13.52214671226236
0 COSMOS 2251 DEB
1 34816U 93036ABF 13285.62934596  .00000431  00000-0  42683-3 0  6661
2 34816 073.8875 148.7251 0391395 286.3445 100.2885 13.52215399226433
0 COSMOS 2251 DEB
1 34816U 93036ABF 13287.06152564  .00000495  00000-0  48750-3 0  6670
2 34816 073.8872 146.4120 0391378 283.7816 232.1039 13.52216497226632
0 COSMOS 2251 DEB
1 34816U 93036ABF 13288.31136755  .00000611  00000-0  59634-3 0  6687
2 34816 073.8870 144.3933 0391351 281.5446 196.3066 13.52218295226803
0 COSMOS 2251 DEB
1 34816U 93036ABF 13290.58579120  .00000493  00000-0  48573-3 0  6695
2 34816 073.8868 140.7197 0391306 277.4737 108.1689 13.52221092227104
0 COSMOS 2251 DEB
1 34816U 93036ABF 13292.01854046  .00000488  00000-0  48079-3 0  6705
2 34816 073.8868 138.4056 0391293 274.9099 242.7847 13.52221999227309
0 COSMOS 2251 DEB
1 34816U 93036ABF 13294.01600985  .00000543  00000-0  53253-3 0  6711
2 34816 073.8869 135.1792 0391272 271.3367 246.4646 13.52224255227572
0 COSMOS 2251 DEB
1 34816U 93036ABF 13295.26487392  .00000600  00000-0  58566-3 0  6721
2 34816 073.8869 133.1620 0391251 269.1008 205.9442 13.52225566227743
